{"type": "FeatureCollection", "features": [ {"type": "Feature", "properties": {"norad_id": 37216, "name": "COSMO-SKYMED 4", "group": "resource", "lat": 22.527645823766125, "lon": 177.77683172248155, "alt_km": 621.6978129919926, "timestamp": "2025-12-25T22:42:16.653202+00:00", "meta": {"OBJECT_NAME": "COSMO-SKYMED 4", "OBJECT_ID": "2010-060A", "EPOCH": "2025-12-25T17:44:29.587776", "MEAN_MOTION": 14.82162111, "ECCENTRICITY": 0.00014, "INCLINATION": 97.8805, "RA_OF_ASC_NODE": 180.8667, "ARG_OF_PERICENTER": 82.4648, "MEAN_ANOMALY": 277.6724, "EPHEMERIS_TYPE": 0, "CLASSIFICATION_TYPE": "U", "NORAD_CAT_ID": 37216, "ELEMENT_SET_NO": 999, "REV_AT_EPOCH": 81887, "BSTAR": 0.00016473, "MEAN_MOTION_DOT": 1.26e-05, "MEAN_MOTION_DDOT": 0}, "tle": {"line1": "1 37216U 10060A   25359.73923134  .00001260  00000+0  16473-3 0  9994", "line2": "2 37216  97.8805 180.8667 0001400  82.4648 277.6724 14.82162111818875"}}, "geometry": {"type": "Point", "coordinates": [177.77683172248155, 22.527645823766125]}}, {"type": "Feature", "properties": {"norad_id": 37387, "name": "RESOURCESAT-2", "group": "resource", "lat": -6.184147179630155, "lon": 64.3977007642193, "alt_km": 819.5589340225597, "timestamp": "2025-12-25T22:42:16.653212+00:00", "meta": {"OBJECT_NAME": "RESOURCESAT-2", "OBJECT_ID": "2011-015A", "EPOCH": "2025-12-25T17:39:59.023584", "MEAN_MOTION": 14.21602249, "ECCENTRICITY": 0.0005782, "INCLINATION": 98.7859, "RA_OF_ASC_NODE": 63.2286, "ARG_OF_PERICENTER": 6.9303, "MEAN_ANOMALY": 353.1953, "EPHEMERIS_TYPE": 0, "CLASSIFICATION_TYPE": "U", "NORAD_CAT_ID": 37387, "ELEMENT_SET_NO": 999, "REV_AT_EPOCH": 76153, "BSTAR": 8.3015e-05, "MEAN_MOTION_DOT": 1.38e-06, "MEAN_MOTION_DDOT": 0}, "tle": {"line1": "1 37387U 11015A   25359.73609981  .00000138  00000+0  83015-4 0  9995", "line2": "2 37387  98.7859  63.2286 0005782   6.9303 353.1953 14.21602249761538"}}, "geometry": {"type": "Point", "coordinates": [64.3977007642193, -6.184147179630155]}}, {"type": "Feature", "properties": {"norad_id": 37781, "name": "HAIYANG-2A", "group": "resource", "lat": 7.926350917577952, "lon": -178.01055723024714, "alt_km": 970.0916412809629, "timestamp": "2025-12-25T22:42:16.653222+00:00", "meta": {"OBJECT_NAME": "HAIYANG-2A", "OBJECT_ID": "2011-043A", "EPOCH": "2025-12-25T18:23:27.396384", "MEAN_MOTION": 13.78835935, "ECCENTRICITY": 0.0001575, "INCLINATION": 99.338, "RA_OF_ASC_NODE": 0.4998, "ARG_OF_PERICENTER": 66.0475, "MEAN_ANOMALY": 294.0842, "EPHEMERIS_TYPE": 0, "CLASSIFICATION_TYPE": "U", "NORAD_CAT_ID": 37781, "ELEMENT_SET_NO": 999, "REV_AT_EPOCH": 72278, "BSTAR": -8.3141e-05, "MEAN_MOTION_DOT": -1.29e-06, "MEAN_MOTION_DDOT": 0}, "tle": {"line1": "1 37781U 11043A   25359.76628931 -.00000129  00000+0 -83141-4 0  9995", "line2": "2 37781  99.3380   0.4998 0001575  66.0475 294.0842 13.78835935722783"}}, "geometry": {"type": "Point", "coordinates": [-178.01055723024714, 7.926350917577952]}}, {"type": "Feature", "properties": {"norad_id": 37791, "name": "RASAT", "group": "resource", "lat": -16.717771307229196, "lon": -93.43318629895644, "alt_km": 687.4272731458132, "timestamp": "2025-12-25T22:42:16.653233+00:00", "meta": {"OBJECT_NAME": "RASAT", "OBJECT_ID": "2011-044D", "EPOCH": "2025-12-25T19:03:53.841024", "MEAN_MOTION": 14.6792851, "ECCENTRICITY": 0.0021286, "INCLINATION": 98.0641, "RA_OF_ASC_NODE": 88.858, "ARG_OF_PERICENTER": 25.5001, "MEAN_ANOMALY": 90.3004, "EPHEMERIS_TYPE": 0, "CLASSIFICATION_TYPE": "U", "NORAD_CAT_ID": 37791, "ELEMENT_SET_NO": 999, "REV_AT_EPOCH": 76774, "BSTAR": 0.00019111, "MEAN_MOTION_DOT": 1.048e-05, "MEAN_MOTION_DDOT": 0}, "tle": {"line1": "1 37791U 11044D   25359.79437316  .00001048  00000+0  19111-3 0  9999", "line2": "2 37791  98.0641  88.8580 0021286  25.5001  90.3004 14.67928510767746"}}, "geometry": {"type": "Point", "coordinates": [-93.43318629895644, -16.717771307229196]}}, {"type": "Feature", "properties": {"norad_id": 37841, "name": "SRMSAT", "group": "resource", "lat": 2.242763057631415, "lon": 34.21807900632799, "alt_km": 851.744640172531, "timestamp": "2025-12-25T22:42:16.653257+00:00", "meta": {"OBJECT_NAME": "SRMSAT", "OBJECT_ID": "2011-058D", "EPOCH": "2025-12-25T10:55:52.472352", "MEAN_MOTION": 14.11515651, "ECCENTRICITY": 0.0011992, "INCLINATION": 19.9731, "RA_OF_ASC_NODE": 30.9947, "ARG_OF_PERICENTER": 92.4725, "MEAN_ANOMALY": 296.1471, "EPHEMERIS_TYPE": 0, "CLASSIFICATION_TYPE": "U", "NORAD_CAT_ID": 37841, "ELEMENT_SET_NO": 999, "REV_AT_EPOCH": 73324, "BSTAR": 9.1991e-05, "MEAN_MOTION_DOT": 4.34e-06, "MEAN_MOTION_DDOT": 0}, "tle": {"line1": "1 37841U 11058D   25359.45546843  .00000434  00000+0  91991-4 0  9994", "line2": "2 37841  19.9731  30.9947 0011992  92.4725 296.1471 14.11515651733247"}}, "geometry": {"type": "Point", "coordinates": [34.21807900632799, 2.242763057631415]}}, {"type": "Feature", "properties": {"norad_id": 38012, "name": "PLEIADES 1A", "group": "resource", "lat": -81.58380264641937, "lon": 176.04018920646934, "alt_km": 705.8794312101527, "timestamp": "2025-12-25T22:42:16.653270+00:00", "meta": {"OBJECT_NAME": "PLEIADES 1A", "OBJECT_ID": "2011-076F", "EPOCH": "2025-12-25T18:41:33.937728", "MEAN_MOTION": 14.58573483, "ECCENTRICITY": 0.0001084, "INCLINATION": 98.1805, "RA_OF_ASC_NODE": 72.3454, "ARG_OF_PERICENTER": 75.9421, "MEAN_ANOMALY": 34.8739, "EPHEMERIS_TYPE": 0, "CLASSIFICATION_TYPE": "U", "NORAD_CAT_ID": 38012, "ELEMENT_SET_NO": 999, "REV_AT_EPOCH": 74671, "BSTAR": 0.00012306, "MEAN_MOTION_DOT": 5.27e-06, "MEAN_MOTION_DDOT": 0}, "tle": {"line1": "1 38012U 11076F   25359.77886502  .00000527  00000+0  12306-3 0  9994", "line2": "2 38012  98.1805  72.3454 0001084  75.9421  34.8739 14.58573483746710"}}, "geometry": {"type": "Point", "coordinates": [176.04018920646934, -81.58380264641937]}}, {"type": "Feature", "properties": {"norad_id": 38038, "name": "ZIYUAN 1-02C (ZY 1-02C)", "group": "resource", "lat": -76.54928556282191, "lon": 104.04248836303982, "alt_km": 777.7325563686645, "timestamp": "2025-12-25T22:42:16.653281+00:00", "meta": {"OBJECT_NAME": "ZIYUAN 1-02C (ZY 1-02C)", "OBJECT_ID": "2011-079A", "EPOCH": "2025-12-25T18:42:11.816352", "MEAN_MOTION": 14.38026261, "ECCENTRICITY": 0.0007557, "INCLINATION": 98.4313, "RA_OF_ASC_NODE": 65.5516, "ARG_OF_PERICENTER": 104.3928, "MEAN_ANOMALY": 33.533, "EPHEMERIS_TYPE": 0, "CLASSIFICATION_TYPE": "U", "NORAD_CAT_ID": 38038, "ELEMENT_SET_NO": 999, "REV_AT_EPOCH": 73428, "BSTAR": 0.00017721, "MEAN_MOTION_DOT": 4.93e-06, "MEAN_MOTION_DDOT": 0}, "tle": {"line1": "1 38038U 11079A   25359.77930343  .00000493  00000+0  17721-3 0  9996", "line2": "2 38038  98.4313  65.5516 0007557 104.3928  33.5330 14.38026261734285"}}, "geometry": {"type": "Point", "coordinates": [104.04248836303982, -76.54928556282191]}}, {"type": "Feature", "properties": {"norad_id": 38338, "name": "ARIRANG-3 (KOMPSAT-3)", "group": "resource", "lat": -44.119614383912854, "lon": -37.19143616403132, "alt_km": 691.2611914817644, "timestamp": "2025-12-25T22:42:16.653291+00:00", "meta": {"OBJECT_NAME": "ARIRANG-3 (KOMPSAT-3)", "OBJECT_ID": "2012-025B", "EPOCH": "2025-12-25T17:58:48.370944", "MEAN_MOTION": 14.6172932, "ECCENTRICITY": 0.0004685, "INCLINATION": 98.3341, "RA_OF_ASC_NODE": 314.4378, "ARG_OF_PERICENTER": 291.7346, "MEAN_ANOMALY": 68.3356, "EPHEMERIS_TYPE": 0, "CLASSIFICATION_TYPE": "U", "NORAD_CAT_ID": 38338, "ELEMENT_SET_NO": 999, "REV_AT_EPOCH": 72600, "BSTAR": 0.00013611, "MEAN_MOTION_DOT": 6.3e-06, "MEAN_MOTION_DDOT": 0}, "tle": {"line1": "1 38338U 12025B   25359.74917096  .00000630  00000+0  13611-3 0  9995", "line2": "2 38338  98.3341 314.4378 0004685 291.7346  68.3356 14.61729320726001"}}, "geometry": {"type": "Point", "coordinates": [-37.19143616403132, -44.119614383912854]}}, {"type": "Feature", "properties": {"norad_id": 38709, "name": "EXACTVIEW-1 (ADS-1B)", "group": "resource", "lat": 6.052920867089743, "lon": 107.65405639411824, "alt_km": 806.3510421017254, "timestamp": "2025-12-25T22:42:16.653301+00:00", "meta": {"OBJECT_NAME": "EXACTVIEW-1 (ADS-1B)", "OBJECT_ID": "2012-039C", "EPOCH": "2025-12-25T05:49:24.235104", "MEAN_MOTION": 14.24912861, "ECCENTRICITY": 0.0010131, "INCLINATION": 98.9637, "RA_OF_ASC_NODE": 107.8951, "ARG_OF_PERICENTER": 316.6255, "MEAN_ANOMALY": 43.4125, "EPHEMERIS_TYPE": 0, "CLASSIFICATION_TYPE": "U", "NORAD_CAT_ID": 38709, "ELEMENT_SET_NO": 999, "REV_AT_EPOCH": 69793, "BSTAR": 8.9782e-05, "MEAN_MOTION_DOT": 1.63e-06, "MEAN_MOTION_DDOT": 0}, "tle": {"line1": "1 38709U 12039C   25359.24264161  .00000163  00000+0  89782-4 0  9999", "line2": "2 38709  98.9637 107.8951 0010131 316.6255  43.4125 14.24912861697937"}}, "geometry": {"type": "Point", "coordinates": [107.65405639411824, 6.052920867089743]}}, {"type": "Feature", "properties": {"norad_id": 38755, "name": "SPOT 6", "group": "resource", "lat": -11.264628012761476, "lon": -117.15103627048934, "alt_km": 702.5766577072036, "timestamp": "2025-12-25T22:42:16.653312+00:00", "meta": {"OBJECT_NAME": "SPOT 6", "OBJECT_ID": "2012-047A", "EPOCH": "2025-12-25T18:32:15.576000", "MEAN_MOTION": 14.58544165, "ECCENTRICITY": 0.0001237, "INCLINATION": 98.1552, "RA_OF_ASC_NODE": 64.3153, "ARG_OF_PERICENTER": 76.7114, "MEAN_ANOMALY": 283.4223, "EPHEMERIS_TYPE": 0, "CLASSIFICATION_TYPE": "U", "NORAD_CAT_ID": 38755, "ELEMENT_SET_NO": 999, "REV_AT_EPOCH": 70777, "BSTAR": 0.00013533, "MEAN_MOTION_DOT": 5.84e-06, "MEAN_MOTION_DDOT": 0}, "tle": {"line1": "1 38755U 12047A   25359.77240250  .00000584  00000+0  13533-3 0  9997", "line2": "2 38755  98.1552  64.3153 0001237  76.7114 283.4223 14.58544165707776"}}, "geometry": {"type": "Point", "coordinates": [-117.15103627048934, -11.264628012761476]}}]}